[{"OBJECT_NAME":"DRUMS","OBJECT_ID":"2021-102G","EPOCH":"2026-03-09T16:02:04.019712","MEAN_MOTION":15.19452308,"ECCENTRICITY":0.00145193,"INCLINATION":97.3433,"RA_OF_ASC_NODE":108.4998,"ARG_OF_PERICENTER":215.993,"MEAN_ANOMALY":144.0328,"EPHEMERIS_TYPE":0,"CLASSIFICATION_TYPE":"U","NORAD_CAT_ID":49401,"ELEMENT_SET_NO":999,"REV_AT_EPOCH":23846,"BSTAR":0.00031687422,"MEAN_MOTION_DOT":6.67e-5,"MEAN_MOTION_DDOT":0},{"OBJECT_NAME":"STARLINK-6085","OBJECT_ID":"2023-090Q","EPOCH":"2026-03-09T12:53:56.600160","MEAN_MOTION":15.13089153,"ECCENTRICITY":0.00193829,"INCLINATION":42.9983,"RA_OF_ASC_NODE":264.1938,"ARG_OF_PERICENTER":205.4773,"MEAN_ANOMALY":154.5119,"EPHEMERIS_TYPE":0,"CLASSIFICATION_TYPE":"U","NORAD_CAT_ID":57115,"ELEMENT_SET_NO":999,"REV_AT_EPOCH":15052,"BSTAR":0.0015301514,"MEAN_MOTION_DOT":0.00027564,"MEAN_MOTION_DDOT":0}]
